[{"OBJECT_NAME":"ONEWEB-0532","OBJECT_ID":"2023-004A","EPOCH":"2026-01-02T02:42:28.177632","MEAN_MOTION":13.17649906,"ECCENTRICITY":0.00019061,"INCLINATION":87.9102,"RA_OF_ASC_NODE":38.876,"ARG_OF_PERICENTER":108.7918,"MEAN_ANOMALY":251.342,"EPHEMERIS_TYPE":0,"CLASSIFICATION_TYPE":"U","NORAD_CAT_ID":55140,"ELEMENT_SET_NO":999,"REV_AT_EPOCH":14571,"BSTAR":0.00020367469,"MEAN_MOTION_DOT":9.2e-7,"MEAN_MOTION_DDOT":0},{"OBJECT_NAME":"ONEWEB-0533","OBJECT_ID":"2023-004B","EPOCH":"2026-01-02T02:35:23.434368","MEAN_MOTION":13.12444899,"ECCENTRICITY":0.00019026,"INCLINATION":87.8928,"RA_OF_ASC_NODE":23.6484,"ARG_OF_PERICENTER":90.9393,"MEAN_ANOMALY":269.1954,"EPHEMERIS_TYPE":0,"CLASSIFICATION_TYPE":"U","NORAD_CAT_ID":55141,"ELEMENT_SET_NO":999,"REV_AT_EPOCH":14627,"BSTAR":0.00089744824,"MEAN_MOTION_DOT":3.36e-6,"MEAN_MOTION_DDOT":0},{"OBJECT_NAME":"ONEWEB-0541","OBJECT_ID":"2023-004C","EPOCH":"2026-01-02T03:51:08.933184","MEAN_MOTION":13.1141611,"ECCENTRICITY":0.00016422,"INCLINATION":87.8839,"RA_OF_ASC_NODE":54.1062,"ARG_OF_PERICENTER":102.6297,"MEAN_ANOMALY":257.5015,"EPHEMERIS_TYPE":0,"CLASSIFICATION_TYPE":"U","NORAD_CAT_ID":55142,"ELEMENT_SET_NO":999,"REV_AT_EPOCH":14418,"BSTAR":-0.0012628893,"MEAN_MOTION_DOT":-4.35e-6,"MEAN_MOTION_DDOT":0},{"OBJECT_NAME":"ONEWEB-0543","OBJECT_ID":"2023-004D","EPOCH":"2026-01-02T07:08:48.335424","MEAN_MOTION":13.18683854,"ECCENTRICITY":0.00017755,"INCLINATION":87.9154,"RA_OF_ASC_NODE":8.4318,"ARG_OF_PERICENTER":79.4604,"MEAN_ANOMALY":280.6728,"EPHEMERIS_TYPE":0,"CLASSIFICATION_TYPE":"U","NORAD_CAT_ID":55143,"ELEMENT_SET_NO":999,"REV_AT_EPOCH":14783,"BSTAR":-6.1720127e-5,"MEAN_MOTION_DOT":-1.1e-7,"MEAN_MOTION_DDOT":0},{"OBJECT_NAME":"ONEWEB-0544","OBJECT_ID":"2023-004E","EPOCH":"2026-01-02T06:59:20.410944","MEAN_MOTION":13.18685813,"ECCENTRICITY":0.00014911,"INCLINATION":87.916,"RA_OF_ASC_NODE":8.4248,"ARG_OF_PERICENTER":85.42,"MEAN_ANOMALY":274.7102,"EPHEMERIS_TYPE":0,"CLASSIFICATION_TYPE":"U","NORAD_CAT_ID":55144,"ELEMENT_SET_NO":999,"REV_AT_EPOCH":14783,"BSTAR":-0.00013467943,"MEAN_MOTION_DOT":-4.0e-7,"MEAN_MOTION_DDOT":0},{"OBJECT_NAME":"ONEWEB-0560","OBJECT_ID":"2023-004F","EPOCH":"2026-01-02T06:49:49.113408","MEAN_MOTION":13.18686895,"ECCENTRICITY":0.00015229,"INCLINATION":87.9164,"RA_OF_ASC_NODE":8.4138,"ARG_OF_PERICENTER":83.1479,"MEAN_ANOMALY":276.9826,"EPHEMERIS_TYPE":0,"CLASSIFICATION_TYPE":"U","NORAD_CAT_ID":55145,"ELEMENT_SET_NO":999,"REV_AT_EPOCH":14784,"BSTAR":-4.2513173e-5,"MEAN_MOTION_DOT":-4.0e-8,"MEAN_MOTION_DDOT":0},{"OBJECT_NAME":"ONEWEB-0565","OBJECT_ID":"2023-004G","EPOCH":"2026-01-02T06:40:18.835392","MEAN_MOTION":13.18686331,"ECCENTRICITY":0.00012442,"INCLINATION":87.9153,"RA_OF_ASC_NODE":8.459,"ARG_OF_PERICENTER":98.301,"MEAN_ANOMALY":261.8263,"EPHEMERIS_TYPE":0,"CLASSIFICATION_TYPE":"U","NORAD_CAT_ID":55146,"ELEMENT_SET_NO":999,"REV_AT_EPOCH":14783,"BSTAR":-0.00013491343,"MEAN_MOTION_DOT":-4.0e-7,"MEAN_MOTION_DDOT":0},{"OBJECT_NAME":"ONEWEB-0567","OBJECT_ID":"2023-004H","EPOCH":"2026-01-02T06:30:48.471840","MEAN_MOTION":13.18687209,"ECCENTRICITY":0.00013076,"INCLINATION":87.9164,"RA_OF_ASC_NODE":8.429,"ARG_OF_PERICENTER":89.7117,"MEAN_ANOMALY":270.4165,"EPHEMERIS_TYPE":0,"CLASSIFICATION_TYPE":"U","NORAD_CAT_ID":55147,"ELEMENT_SET_NO":999,"REV_AT_EPOCH":14783,"BSTAR":0.00016473278,"MEAN_MOTION_DOT":7.8e-7,"MEAN_MOTION_DDOT":0},{"OBJECT_NAME":"ONEWEB-0569","OBJECT_ID":"2023-004J","EPOCH":"2026-01-02T05:53:46.549824","MEAN_MOTION":13.13469213,"ECCENTRICITY":0.00010247,"INCLINATION":87.8991,"RA_OF_ASC_NODE":353.1876,"ARG_OF_PERICENTER":56.7878,"MEAN_ANOMALY":303.3349,"EPHEMERIS_TYPE":0,"CLASSIFICATION_TYPE":"U","NORAD_CAT_ID":55148,"ELEMENT_SET_NO":999,"REV_AT_EPOCH":14839,"BSTAR":-0.00011420262,"MEAN_MOTION_DOT":-2.9e-7,"MEAN_MOTION_DDOT":0},{"OBJECT_NAME":"ONEWEB-0570","OBJECT_ID":"2023-004K","EPOCH":"2026-01-02T06:16:34.338720","MEAN_MOTION":13.18685888,"ECCENTRICITY":0.00017109,"INCLINATION":87.916,"RA_OF_ASC_NODE":8.431,"ARG_OF_PERICENTER":105.3,"MEAN_ANOMALY":254.8322,"EPHEMERIS_TYPE":0,"CLASSIFICATION_TYPE":"U","NORAD_CAT_ID":55149,"ELEMENT_SET_NO":999,"REV_AT_EPOCH":14782,"BSTAR":9.3731174e-5,"MEAN_MOTION_DOT":5.0e-7,"MEAN_MOTION_DDOT":0},{"OBJECT_NAME":"ONEWEB-0571","OBJECT_ID":"2023-004L","EPOCH":"2026-01-02T06:07:04.738080","MEAN_MOTION":13.18685656,"ECCENTRICITY":4.766e-5,"INCLINATION":87.9159,"RA_OF_ASC_NODE":8.4311,"ARG_OF_PERICENTER":101.6006,"MEAN_ANOMALY":258.5179,"EPHEMERIS_TYPE":0,"CLASSIFICATION_TYPE":"U","NORAD_CAT_ID":55150,"ELEMENT_SET_NO":999,"REV_AT_EPOCH":14783,"BSTAR":7.5215197e-5,"MEAN_MOTION_DOT":4.3e-7,"MEAN_MOTION_DDOT":0},{"OBJECT_NAME":"ONEWEB-0572","OBJECT_ID":"2023-004M","EPOCH":"2026-01-02T03:26:12.440256","MEAN_MOTION":13.17649329,"ECCENTRICITY":0.00015762,"INCLINATION":87.9091,"RA_OF_ASC_NODE":38.8783,"ARG_OF_PERICENTER":99.2237,"MEAN_ANOMALY":260.9073,"EPHEMERIS_TYPE":0,"CLASSIFICATION_TYPE":"U","NORAD_CAT_ID":55151,"ELEMENT_SET_NO":999,"REV_AT_EPOCH":14561,"BSTAR":0.00011076967,"MEAN_MOTION_DOT":5.6e-7,"MEAN_MOTION_DDOT":0},{"OBJECT_NAME":"ONEWEB-0573","OBJECT_ID":"2023-004N","EPOCH":"2026-01-02T05:57:33.941664","MEAN_MOTION":13.18685335,"ECCENTRICITY":0.00012315,"INCLINATION":87.9152,"RA_OF_ASC_NODE":8.4359,"ARG_OF_PERICENTER":117.4339,"MEAN_ANOMALY":242.6919,"EPHEMERIS_TYPE":0,"CLASSIFICATION_TYPE":"U","NORAD_CAT_ID":55152,"ELEMENT_SET_NO":999,"REV_AT_EPOCH":14782,"BSTAR":-4.2344718e-5,"MEAN_MOTION_DOT":-4.0e-8,"MEAN_MOTION_DDOT":0},{"OBJECT_NAME":"ONEWEB-0588","OBJECT_ID":"2023-004P","EPOCH":"2026-01-02T05:48:03.455424","MEAN_MOTION":13.18687616,"ECCENTRICITY":0.00015806,"INCLINATION":87.9163,"RA_OF_ASC_NODE":8.4345,"ARG_OF_PERICENTER":105.3318,"MEAN_ANOMALY":254.7989,"EPHEMERIS_TYPE":0,"CLASSIFICATION_TYPE":"U","NORAD_CAT_ID":55153,"ELEMENT_SET_NO":999,"REV_AT_EPOCH":14782,"BSTAR":6.341342e-5,"MEAN_MOTION_DOT":3.8e-7,"MEAN_MOTION_DDOT":0},{"OBJECT_NAME":"ONEWEB-0598","OBJECT_ID":"2023-004Q","EPOCH":"2026-01-02T03:19:24.996000","MEAN_MOTION":13.1141412,"ECCENTRICITY":0.00011447,"INCLINATION":87.8828,"RA_OF_ASC_NODE":54.1363,"ARG_OF_PERICENTER":94.3832,"MEAN_ANOMALY":265.7426,"EPHEMERIS_TYPE":0,"CLASSIFICATION_TYPE":"U","NORAD_CAT_ID":55154,"ELEMENT_SET_NO":999,"REV_AT_EPOCH":14413,"BSTAR":0.0013814887,"MEAN_MOTION_DOT":5.02e-6,"MEAN_MOTION_DDOT":0},{"OBJECT_NAME":"ONEWEB-0599","OBJECT_ID":"2023-004R","EPOCH":"2026-01-02T02:30:19.241568","MEAN_MOTION":13.17650588,"ECCENTRICITY":0.00016907,"INCLINATION":87.909,"RA_OF_ASC_NODE":38.8875,"ARG_OF_PERICENTER":88.6685,"MEAN_ANOMALY":271.464,"EPHEMERIS_TYPE":0,"CLASSIFICATION_TYPE":"U","NORAD_CAT_ID":55155,"ELEMENT_SET_NO":999,"REV_AT_EPOCH":14561,"BSTAR":0.00029191341,"MEAN_MOTION_DOT":1.26e-6,"MEAN_MOTION_DDOT":0},{"OBJECT_NAME":"ONEWEB-0614","OBJECT_ID":"2023-004S","EPOCH":"2026-01-02T03:12:06.370848","MEAN_MOTION":13.11415997,"ECCENTRICITY":0.00019549,"INCLINATION":87.8827,"RA_OF_ASC_NODE":54.1458,"ARG_OF_PERICENTER":105.0286,"MEAN_ANOMALY":255.1058,"EPHEMERIS_TYPE":0,"CLASSIFICATION_TYPE":"U","NORAD_CAT_ID":55156,"ELEMENT_SET_NO":999,"REV_AT_EPOCH":14407,"BSTAR":0.0016099533,"MEAN_MOTION_DOT":5.83e-6,"MEAN_MOTION_DDOT":0}]
